ONEWEB-0259             
1 48977U 21060L   26185.80530766  .00000005  00000+0 -20291-4 0  9994
2 48977  87.9084 225.2830 0002204  98.8803 261.2577 13.16593494241944
ONEWEB-0260             
1 48978U 21060M   26185.34061154  .00000097  00000+0  22092-3 0  9994
2 48978  87.9081 225.3762 0001724  88.5956 271.5373 13.16595623241863
ONEWEB-0261             
1 48979U 21060N   26185.84251686  .00000078  00000+0  17111-3 0  9996
2 48979  87.9078 225.2772 0001894 103.9747 256.1595 13.16593048241985
ONEWEB-0262             
1 48980U 21060P   26185.82272235  .00000021  00000+0  21180-4 0  9999
2 48980  87.9086 225.2674 0002298 100.3394 259.7996 13.16593307241943
ONEWEB-0263             
1 48981U 21060Q   26185.85438582  .00000062  00000+0  12760-3 0  9990
2 48981  87.9084 225.2728 0001985 105.0860 255.0491 13.16593087241915
ONEWEB-0264             
1 48982U 21060R   26185.81558449  .00000088  00000+0  19727-3 0  9990
2 48982  87.9079 225.2831 0001830  97.6073 262.5266 13.16596241241914
ONEWEB-0266             
1 48984U 21060T   26185.83697416 -.00000122  00000+0 -35181-3 0  9995
2 48984  87.9083 225.2700 0002149  93.8275 266.3102 13.16593980241909
ONEWEB-0267             
1 48985U 21060U   26185.84805636 -.00000093  00000+0 -27805-3 0  9993
2 48985  87.9082 225.2645 0001919 100.3535 259.7813 13.16593523241913
ONEWEB-0268             
1 48986U 21060V   26185.81638704  .00000030  00000+0  44964-4 0  9996
2 48986  87.9085 225.2800 0001969  92.8728 267.2628 13.16593456242176
ONEWEB-0269             
1 48987U 21060W   26185.79739038  .00000005  00000+0 -21326-4 0  9996
2 48987  87.9076 225.2848 0002050  89.5767 270.5598 13.16593392241943
ONEWEB-0270             
1 48988U 21060X   26185.81480848  .00000033  00000+0  51861-4 0  9999
2 48988  87.9083 225.2824 0002181 104.9921 255.1452 13.16593393241988
ONEWEB-0271             
1 48989U 21060Y   26185.80214336  .00000018  00000+0  12185-4 0  9995
2 48989  87.9085 225.2744 0002007 102.0351 258.1006 13.16593651241980
ONEWEB-0272             
1 48990U 21060Z   26185.82431394 -.00000021  00000+0 -88361-4 0  9999
2 48990  87.9081 225.2811 0001715  94.9383 265.1944 13.16595655241932
ONEWEB-0273             
1 48991U 21060AA  26185.84647025  .00000068  00000+0  14350-3 0  9997
2 48991  87.9079 225.2770 0002058  99.4430 260.6933 13.16593474241911
ONEWEB-0274             
1 48992U 21060AB  26185.33982269  .00000111  00000+0  25776-3 0  9997
2 48992  87.9075 225.3784 0001771  91.5470 268.5864 13.16595437241889
ONEWEB-0275             
1 48993U 21060AC  26185.86072233  .00000090  00000+0  20153-3 0  9997
2 48993  87.9079 225.2657 0001922  96.7984 263.3366 13.16595498241884
ONEWEB-0276             
1 48994U 21060AD  26185.81797478 -.00000079  00000+0 -24098-3 0  9999
2 48994  87.9084 225.2734 0001906  93.3646 266.7703 13.16593439241893
ONEWEB-0277             
1 48995U 21060AE  26185.83065276 -.00000059  00000+0 -18766-3 0  9999
2 48995  87.9075 225.2789 0002041  99.9455 260.1907 13.16594691241889
ONEWEB-0278             
1 48996U 21060AF  26185.82114182  .00000002  00000+0 -29649-4 0  9990
2 48996  87.9088 225.2721 0002266  92.8769 267.2622 13.16593539242017
ONEWEB-0279             
1 48997U 21060AG  26185.82905707  .00000039  00000+0  67675-4 0  9992
2 48997  87.9084 225.2688 0001852 100.7302 259.4038 13.16593582241941
ONEWEB-0280             
1 48998U 21060AH  26185.38811861 -.00000007  00000+0 -51245-4 0  9994
2 48998  87.9077 225.3603 0002359 100.5683 259.5714 13.16594119241821
ONEWEB-0281             
1 48999U 21060AJ  26185.84963602  .00000085  00000+0  18867-3 0  9993
2 48999  87.9081 225.2640 0002070  94.3093 265.8275 13.16593233241954
ONEWEB-0282             
1 49000U 21060AK  26185.80372796  .00000071  00000+0  15254-3 0  9993
2 49000  87.9082 225.2810 0002129  98.3356 261.8016 13.16594290241929
ONEWEB-0283             
1 49001U 21060AL  26185.56464085  .00000133  00000+0  31362-3 0  9997
2 49001  87.9082 225.3279 0001932  98.6359 261.4991 13.16593090241900
ONEWEB-0284             
1 49002U 21060AM  26185.86230977  .00000107  00000+0  24523-3 0  9994
2 49002  87.9087 225.2626 0002422  96.6021 263.5386 13.16593233241922
JILIN-1 KUANFU-01B      
1 49003U 21061A   26185.93513963  .00003293  00000+0  20780-3 0  9993
2 49003  97.5204 261.8004 0007003  14.7301 345.4131 15.09770444276021
FENGYUN 3E              
1 49008U 21062A   26185.95935432 -.00000363  00000+0 -15022-3 0  9990
2 49008  98.7494 189.1692 0002613  56.9325 303.2102 14.19904719259105
TIANLIAN 1-05           
1 49011U 21063A   26185.99479369  .00000121  00000+0  00000+0 0  9997
2 49011   1.6368  80.5612 0000801  51.0489 166.3689  1.00272309 18258
NINGXIA-1 6             
1 49018U 21064A   26185.93560404 -.00000076  00000+0  32248-4 0  9994
2 49018  44.9981 146.9133 0009176 311.1338  48.8706 14.08535804256711
NINGXIA-1 7             
1 49019U 21064B   26185.99229611 -.00000299  00000+0 -96315-4 0  9996
2 49019  45.0007 146.8952 0007987 318.8355  41.1878 14.08551191256759
