OBJECT_NAME,OBJECT_ID,EPOCH,MEAN_MOTION,ECCENTRICITY,INCLINATION,RA_OF_ASC_NODE,ARG_OF_PERICENTER,MEAN_ANOMALY,EPHEMERIS_TYPE,CLASSIFICATION_TYPE,NORAD_CAT_ID,ELEMENT_SET_NO,REV_AT_EPOCH,BSTAR,MEAN_MOTION_DOT,MEAN_MOTION_DDOT
ONEWEB-0259,2021-060L,2026-07-04T19:19:38.581824,13.16593494,.00022044,87.9084,225.2830,98.8803,261.2577,0,U,48977,999,24194,-.20291058E-4,.5E-7,0
ONEWEB-0260,2021-060M,2026-07-04T08:10:28.837056,13.16595623,.0001724,87.9081,225.3762,88.5956,271.5373,0,U,48978,999,24186,.22091894E-3,.97E-6,0
ONEWEB-0261,2021-060N,2026-07-04T20:13:13.456704,13.16593048,.0001894,87.9078,225.2772,103.9747,256.1595,0,U,48979,999,24198,.17110719E-3,.78E-6,0
ONEWEB-0262,2021-060P,2026-07-04T19:44:43.211040,13.16593307,.00022981,87.9086,225.2674,100.3394,259.7996,0,U,48980,999,24194,.21180104E-4,.21E-6,0
ONEWEB-0263,2021-060Q,2026-07-04T20:30:18.934848,13.16593087,.00019859,87.9084,225.2728,105.0860,255.0491,0,U,48981,999,24191,.12760139E-3,.62E-6,0
ONEWEB-0264,2021-060R,2026-07-04T19:34:26.499936,13.16596241,.00018306,87.9079,225.2831,97.6073,262.5266,0,U,48982,999,24191,.19726781E-3,.88E-6,0
ONEWEB-0266,2021-060T,2026-07-04T20:05:14.567424,13.16593980,.00021496,87.9083,225.2700,93.8275,266.3102,0,U,48984,999,24190,-.35181264E-3,-.122E-5,0
ONEWEB-0267,2021-060U,2026-07-04T20:21:12.069504,13.16593523,.00019196,87.9082,225.2645,100.3535,259.7813,0,U,48985,999,24191,-.27805483E-3,-.93E-6,0
ONEWEB-0268,2021-060V,2026-07-04T19:35:35.840256,13.16593456,.00019695,87.9085,225.2800,92.8728,267.2628,0,U,48986,999,24217,.44963867E-4,.3E-6,0
ONEWEB-0269,2021-060W,2026-07-04T19:08:14.528832,13.16593392,.00020508,87.9076,225.2848,89.5767,270.5598,0,U,48987,999,24194,-.21326183E-4,.5E-7,0
ONEWEB-0270,2021-060X,2026-07-04T19:33:19.452672,13.16593393,.00021817,87.9083,225.2824,104.9921,255.1452,0,U,48988,999,24198,.51861243E-4,.33E-6,0
ONEWEB-0271,2021-060Y,2026-07-04T19:15:05.186304,13.16593651,.00020079,87.9085,225.2744,102.0351,258.1006,0,U,48989,999,24198,.12184832E-4,.18E-6,0
ONEWEB-0272,2021-060Z,2026-07-04T19:47:00.724416,13.16595655,.00017154,87.9081,225.2811,94.9383,265.1944,0,U,48990,999,24193,-.88360907E-4,-.21E-6,0
ONEWEB-0273,2021-060AA,2026-07-04T20:18:55.029600,13.16593474,.00020587,87.9079,225.2770,99.4430,260.6933,0,U,48991,999,24191,.14350145E-3,.68E-6,0
ONEWEB-0274,2021-060AB,2026-07-04T08:09:20.680416,13.16595437,.00017716,87.9075,225.3784,91.5470,268.5864,0,U,48992,999,24188,.25776156E-3,.111E-5,0
ONEWEB-0275,2021-060AC,2026-07-04T20:39:26.409312,13.16595498,.00019223,87.9079,225.2657,96.7984,263.3366,0,U,48993,999,24188,.20153221E-3,.9E-6,0
ONEWEB-0276,2021-060AD,2026-07-04T19:37:53.020992,13.16593439,.00019064,87.9084,225.2734,93.3646,266.7703,0,U,48994,999,24189,-.24098408E-3,-.79E-6,0
ONEWEB-0277,2021-060AE,2026-07-04T19:56:08.398464,13.16594691,.00020419,87.9075,225.2789,99.9455,260.1907,0,U,48995,999,24188,-.18766287E-3,-.59E-6,0
ONEWEB-0278,2021-060AF,2026-07-04T19:42:26.653248,13.16593539,.00022666,87.9088,225.2721,92.8769,267.2622,0,U,48996,999,24201,-.29648916E-4,.2E-7,0
ONEWEB-0279,2021-060AG,2026-07-04T19:53:50.530848,13.16593582,.00018521,87.9084,225.2688,100.7302,259.4038,0,U,48997,999,24194,.67675061E-4,.39E-6,0
ONEWEB-0280,2021-060AH,2026-07-04T09:18:53.447904,13.16594119,.00023595,87.9077,225.3603,100.5683,259.5714,0,U,48998,999,24182,-.51245278E-4,-.7E-7,0
ONEWEB-0281,2021-060AJ,2026-07-04T20:23:28.552128,13.16593233,.00020702,87.9081,225.2640,94.3093,265.8275,0,U,48999,999,24195,.18867089E-3,.85E-6,0
ONEWEB-0282,2021-060AK,2026-07-04T19:17:22.095744,13.16594290,.00021292,87.9082,225.2810,98.3356,261.8016,0,U,49000,999,24192,.15253743E-3,.71E-6,0
ONEWEB-0283,2021-060AL,2026-07-04T13:33:04.969440,13.16593090,.0001932,87.9082,225.3279,98.6359,261.4991,0,U,49001,999,24190,.31362353E-3,.133E-5,0
ONEWEB-0284,2021-060AM,2026-07-04T20:41:43.564128,13.16593233,.00024228,87.9087,225.2626,96.6021,263.5386,0,U,49002,999,24192,.24522637E-3,.107E-5,0
JILIN-1 KUANFU-01B,2021-061A,2026-07-04T22:26:36.064032,15.09770444,.00070036,97.5204,261.8004,14.7301,345.4131,0,U,49003,999,27602,.20779867E-3,.3293E-4,0
FENGYUN 3E,2021-062A,2026-07-04T23:01:28.213248,14.19904719,.00026138,98.7494,189.1692,56.9325,303.2102,0,U,49008,999,25910,-.15021944E-3,-.363E-5,0
TIANLIAN 1-05,2021-063A,2026-07-04T23:52:30.174816,1.00272309,.00008016,1.6368,80.5612,51.0489,166.3689,0,U,49011,999,1825,0,.121E-5,0
NINGXIA-1 6,2021-064A,2026-07-04T22:27:16.189056,14.08535804,.0009176,44.9981,146.9133,311.1338,48.8706,0,U,49018,999,25671,.32247616E-4,-.76E-6,0
NINGXIA-1 7,2021-064B,2026-07-04T23:48:54.383904,14.08551191,.00079872,45.0007,146.8952,318.8355,41.1878,0,U,49019,999,25675,-.96315106E-4,-.299E-5,0
